SatCatId,ObjectName,LaunchYear,OrbitalPeriod,LaunchMass,StatusCode,Inclination,Status,UcsData,OrbitClassEstimated,LaunchSiteCountry,Owner,UseType,Purpose,LaunchVehicleClass,TLE1,TLE2,MeanMotion,Eccentricity,OrbitClass
53496,STARLINK-4465,2022,95.92,260.0,+,97.66,Active,1,LEO,USA,USA,Commercial,Communications,Falcon,1 53496U 22099AH  23276.60889332  .00008224  00000+0  64378-3 0  9994,2 53496  97.6560  36.1393 0002675  93.0121 267.1409 15.01279361 62746,15.01279361,0.0002675,LEO
53497,STARLINK-4453,2022,95.92,260.0,+,97.66,Active,1,LEO,USA,USA,Commercial,Communications,Falcon,1 53497U 22099AJ  23276.60148646  .00007285  00000+0  57094-3 0  9994,2 53497  97.6573  36.1296 0001411  83.6722 276.4663 15.01276006 62740,15.01276006,0.0001411,LEO
53498,STARLINK-4439,2022,95.92,260.0,+,97.66,Active,1,LEO,USA,USA,Commercial,Communications,Falcon,1 53498U 22099AK  23276.60173151  .00009314  00000+0  72852-3 0  9998,2 53498  97.6578  36.1420 0001268  95.7735 264.3634 15.01273819 62746,15.01273819,0.0001268,LEO
53499,STARLINK-4454,2022,95.92,260.0,+,97.66,Active,1,LEO,USA,USA,Commercial,Communications,Falcon,1 53499U 22099AL  23276.60704293  .00006226  00000+0  48875-3 0  9993,2 53499  97.6561  36.1219 0002758  97.5482 262.6056 15.01271500 62743,15.012715,0.0002758,LEO
53500,STARLINK-4455,2022,95.92,260.0,+,97.66,Active,1,LEO,USA,USA,Commercial,Communications,Falcon,1 53500U 22099AM  23276.60333814  .00007920  00000+0  62029-3 0  9992,2 53500  97.6562  36.1323 0001700  91.4510 268.6909 15.01272838 62742,15.01272838,0.00017,LEO
53501,STARLINK-4434,2022,95.92,260.0,+,97.66,Active,1,LEO,USA,USA,Commercial,Communications,Falcon,1 53501U 22099AN  23276.59247227  .00003402  00000+0  26928-3 0  9992,2 53501  97.6578  36.1275 0001060  91.1200 269.0145 15.01268216 62740,15.01268216,0.000106,LEO
53502,STARLINK-4435,2022,95.92,260.0,+,97.66,Active,1,LEO,USA,USA,Commercial,Communications,Falcon,1 53502U 22099AP  23276.33302859  .00015162  00000+0  11818-2 0  9995,2 53502  97.6564  35.8651 0001842  92.8053 267.3382 15.01283126 62709,15.01283126,0.0001842,LEO
53503,STARLINK-4461,2022,95.92,260.0,+,97.66,Active,1,LEO,USA,USA,Commercial,Communications,Falcon,1 53503U 22099AQ  23276.59408104  .00004451  00000+0  35087-3 0  9998,2 53503  97.6578  36.1218 0001206  97.0544 263.0817 15.01268412 62745,15.01268412,0.0001206,LEO
53504,STARLINK-4448,2022,95.92,260.0,+,97.66,Active,1,LEO,USA,USA,Commercial,Communications,Falcon,1 53504U 22099AR  23276.59778491  .00007420  00000+0  58149-3 0  9991,2 53504  97.6581  36.1270 0001256  92.8616 267.2752 15.01273879 62743,15.01273879,0.0001256,LEO
53505,STARLINK-4446,2022,95.92,260.0,+,97.66,Active,1,LEO,USA,USA,Commercial,Communications,Falcon,1 53505U 22099AS  23276.32377008  .00012622  00000+0  98511-3 0  9999,2 53505  97.6564  35.8529 0001508  91.8183 268.3214 15.01275933 62700,15.01275933,0.0001508,LEO
53506,STARLINK-4437,2022,95.92,260.0,+,97.66,Active,1,LEO,USA,USA,Commercial,Communications,Falcon,1 53506U 22099AT  23276.59593089  .00010708  00000+0  83623-3 0  9999,2 53506  97.6561  36.1153 0001626 109.5952 250.5448 15.01295618 62745,15.01295618,0.0001626,LEO
53507,STARLINK-4444,2022,95.92,260.0,+,97.66,Active,1,LEO,USA,USA,Commercial,Communications,Falcon,1 53507U 22099AU  23276.58852347  .00012245  00000+0  95573-3 0  9999,2 53507  97.6562  36.1151 0001134 101.0449 259.0903 15.01282590 62742,15.0128259,0.0001134,LEO
53508,STARLINK-4443,2022,95.92,260.0,+,97.66,Active,1,LEO,USA,USA,Commercial,Communications,Falcon,1 53508U 22099AV  23276.59222834  .00016202  00000+0  12627-2 0  9998,2 53508  97.6563  36.1184 0000239 123.2544 236.8703 15.01272532 62743,15.01272532,2.39e-05,LEO
53509,STARLINK-4402,2022,95.92,260.0,+,97.66,Active,1,LEO,USA,USA,Commercial,Communications,Falcon,1 53509U 22099AW  23276.58667224  .00015269  00000+0  11900-2 0  9999,2 53509  97.6563  36.1069 0000614 103.9424 256.1868 15.01287058 62741,15.01287058,6.14e-05,LEO
53510,STARLINK-4441,2022,95.92,260.0,+,97.65,Active,1,LEO,USA,USA,Commercial,Communications,Falcon,1 53510U 22099AX  23276.57765582  .00012218  00000+0  95367-3 0  9997,2 53510  97.6535  36.1170 0000683 175.7047 184.4184 15.01279672 62746,15.01279672,6.83e-05,LEO
53522,YAOGAN-35 04A,2022,94.54,-1.0,+,35.0,Active,0,LEO,PRC,China,Unknown,Unknown,Long March,1 53522U 22100A   23276.32895497  .00022621  00000+0  93390-3 0  9998,2 53522  34.9997 147.7438 0009252  17.4788 342.6244 15.23098785 62525,15.23098785,0.0009252,LEO
53524,YAOGAN-35 04B,2022,94.53,-1.0,+,35.0,Active,0,LEO,PRC,China,Unknown,Unknown,Long March,1 53524U 22100C   23276.32438495  .00021844  00000+0  89604-3 0  9990,2 53524  34.9953 147.6380 0002037 257.6972 102.3514 15.23357619 62481,15.23357619,0.0002037,LEO
53526,YAOGAN-35 04C,2022,94.53,-1.0,+,35.0,Active,0,LEO,PRC,China,Unknown,Unknown,Long March,1 53526U 22100E   23276.32708858  .00017255  00000+0  70893-3 0  9996,2 53526  34.9953 147.6659 0004388 316.5495  43.4873 15.23332645 62483,15.23332645,0.0004388,LEO
53527,STARLINK-4511,2022,95.44,260.0,+,53.22,Active,1,LEO,USA,USA,Commercial,Communications,Falcon,1 53527U 22101A   23276.49650988 -.00000170  00000+0  73980-5 0  9997,2 53527  53.2161 101.3688 0001427  89.5420 270.5736 15.08839773 62077,15.08839773,0.0001427,LEO
53528,STARLINK-4503,2022,95.44,260.0,+,53.22,Active,1,LEO,USA,USA,Commercial,Communications,Falcon,1 53528U 22101B   23276.23522514  .00005579  00000+0  36838-3 0  9999,2 53528  53.2150 102.5445 0001178  90.0183 270.0944 15.08835264 62039,15.08835264,0.0001178,LEO
53529,STARLINK-4478,2022,95.44,260.0,+,53.22,Active,1,LEO,USA,USA,Commercial,Communications,Falcon,1 53529U 22101C   23276.49282768  .00001546  00000+0  11518-3 0  9990,2 53529  53.2155 101.3867 0001448  89.7937 270.3221 15.08840106 62078,15.08840106,0.0001448,LEO
53530,STARLINK-4482,2022,95.44,260.0,+,53.22,Active,1,LEO,USA,USA,Commercial,Communications,Falcon,1 53530U 22101D   23276.50757320  .00000743  00000+0  64725-4 0  9992,2 53530  53.2151 101.5430 0001103  86.4289 273.6829 15.08843511 62079,15.08843511,0.0001103,LEO
53531,STARLINK-4487,2022,95.44,260.0,+,53.22,Active,1,LEO,USA,USA,Commercial,Communications,Falcon,1 53531U 22101E   23276.48914476 -.00000539  00000+0 -15750-4 0  9996,2 53531  53.2156 101.4046 0001420  78.7918 281.3234 15.08840260 62076,15.0884026,0.000142,LEO
53532,STARLINK-4483,2022,95.44,260.0,+,53.22,Active,1,LEO,USA,USA,Commercial,Communications,Falcon,1 53532U 22101F   23276.52226447  .00001159  00000+0  90871-4 0  9990,2 53532  53.2158 101.2600 0001300  90.5636 269.5505 15.08842692 62080,15.08842692,0.00013,LEO
53533,STARLINK-4493,2022,95.44,260.0,+,53.22,Active,1,LEO,USA,USA,Commercial,Communications,Falcon,1 53533U 22101G   23276.25362425  .00000380  00000+0  41990-4 0  9991,2 53533  53.2159 102.4526 0001340 101.3470 258.7673 15.08839056 62045,15.08839056,0.000134,LEO
53534,STARLINK-4488,2022,95.54,260.0,+,53.21,Active,1,LEO,USA,USA,Commercial,Communications,Falcon,1 53534U 22101H   23276.51585609  .00007613  00000+0  51813-3 0  9992,2 53534  53.2139 101.3742 0001303  86.4021 273.7120 15.07210491 62089,15.07210491,0.0001303,LEO
53535,STARLINK-4138,2022,95.44,260.0,+,53.22,Active,1,LEO,USA,USA,Commercial,Communications,Falcon,1 53535U 22101J   23276.51490646  .00001270  00000+0  97861-4 0  9996,2 53535  53.2164 101.2929 0001168  78.2516 281.8607 15.08840099 62085,15.08840099,0.0001168,LEO
53536,STARLINK-4053,2022,95.44,260.0,+,53.22,Active,1,LEO,USA,USA,Commercial,Communications,Falcon,1 53536U 22101K   23276.49101610  .00000372  00000+0  41457-4 0  9996,2 53536  53.2161  91.3287 0001492  90.3040 269.8123 15.08839403 62217,15.08839403,0.0001492,LEO
53537,STARLINK-4120,2022,95.44,260.0,+,53.22,Active,1,LEO,USA,USA,Commercial,Communications,Falcon,1 53537U 22101L   23276.51585775  .00001983  00000+0  14264-3 0  9992,2 53537  53.2148 101.2594 0001457  83.1479 276.9678 15.08843887 62082,15.08843887,0.0001457,LEO
53538,STARLINK-4118,2022,95.44,260.0,+,53.22,Active,1,LEO,USA,USA,Commercial,Communications,Falcon,1 53538U 22101M   23276.62622399  .00001289  00000+0  99060-4 0  9996,2 53538  53.2156  90.7885 0001397  86.9300 273.1852 15.08842067 62929,15.08842067,0.0001397,LEO
53539,STARLINK-4123,2022,95.44,260.0,+,53.21,Active,1,LEO,USA,USA,Commercial,Communications,Falcon,1 53539U 22101N   23276.51122700  .00001515  00000+0  11326-3 0  9996,2 53539  53.2150 101.3065 0001302  98.2918 261.8222 15.08837095 62087,15.08837095,0.0001302,LEO
53540,STARLINK-4486,2022,95.44,260.0,+,53.22,Active,1,LEO,USA,USA,Commercial,Communications,Falcon,1 53540U 22101P   23276.22510400  .00000410  00000+0  43815-4 0  9996,2 53540  53.2174  92.5888 0001331  84.1057 276.0087 15.08844022 62860,15.08844022,0.0001331,LEO
53541,STARLINK-4485,2022,95.44,260.0,+,53.22,Active,1,LEO,USA,USA,Commercial,Communications,Falcon,1 53541U 22101Q   23276.23890618  .00000133  00000+0  26467-4 0  9996,2 53541  53.2171 102.5336 0001529  90.1642 269.9526 15.08836977 62739,15.08836977,0.0001529,LEO
53542,STARLINK-4489,2022,95.44,260.0,+,53.22,Active,1,LEO,USA,USA,Commercial,Communications,Falcon,1 53542U 22101R   23276.48270873  .00000051  00000+0  21321-4 0  9992,2 53542  53.2164  91.4301 0001531  86.3748 273.7419 15.08835015 62216,15.08835015,0.0001531,LEO
53543,STARLINK-4297,2022,95.44,260.0,+,53.22,Active,1,LEO,USA,USA,Commercial,Communications,Falcon,1 53543U 22101S   23276.23247113  .00000326  00000+0  38594-4 0  9992,2 53543  53.2161  92.6198 0001360  98.8246 261.2900 15.08838679 62869,15.08838679,0.000136,LEO
53544,STARLINK-4303,2022,95.44,260.0,+,53.22,Active,1,LEO,USA,USA,Commercial,Communications,Falcon,1 53544U 22101T   23276.47534434  .00000731  00000+0  64022-4 0  9999,2 53544  53.2162  91.4653 0001421  85.5882 274.5273 15.08841897 62889,15.08841897,0.0001421,LEO
